CZ-2C R/B               
1 54039U 22132E   25346.02731225  .00045651  00000+0  67805-3 0  9992
2 54039  97.2952 342.2123 0023241  59.5587 300.7959 15.54742574176725
GSLV R/B                
1 54149U 22138AN  25346.12004638  .00004487  00000+0  39420-3 0  9996
2 54149  87.3828 195.6816 0024079 107.4254 252.9613 14.96125055170837
XRISM                   
1 57800U 23137A   25345.64463499  .00008786  00000+0  51677-3 0  9997
2 57800  31.0009 132.6140 0007680 234.5951 125.3971 15.10326363124467
ACS3                    
1 59588U 24077B   25346.17624926  .00040686  00000+0  34724-1 0  9996
2 59588  97.2686 301.9081 0077658 339.5275  20.2778 13.85454135 82065
SZ-21 MODULE            
1 66515U 25246C   25346.15572269  .00033863  00000+0  37242-3 0  9992
2 66515  41.4775  19.6084 0006330 257.1600 102.8532 15.62436812  4355
